start=new Date('2022-03-26T00:00:00.000Z').valueOf();
sats=[{"RA_OF_ASC_NODE":"359.4655","SEMIMAJOR_AXIS":"6925.379","MEAN_ELEMENT_THEORY":"SGP4","MEAN_MOTION_DDOT":"0.0000000000000","SITE":"AFETR","APOAPSIS":"548.382","CENTER_NAME":"EARTH","EPOCH":"2022-03-25T11:19:10.828704","LAUNCH_DATE":"2021-05-04","COUNTRY_CODE":"US","GP_ID":"199663463","FILE":"3373822","DECAY_DATE":null,"ECCENTRICITY":"0.00016440","TLE_LINE2":"2 48367  53.0571 359.4655 0001644  59.7094 300.4057 15.06390122 49334","PERIOD":"95.593","MEAN_ANOMALY":"300.4057","TIME_SYSTEM":"UTC","TLE_LINE1":"1 48367U 21038Q   22084.47165311 -.00000983  00000-0 -47123-4 0  9999","BSTAR":"-0.00004712300000","NORAD_CAT_ID":"48367","PERIAPSIS":"546.105","REV_AT_EPOCH":"4933","INCLINATION":"53.0571","OBJECT_TYPE":"PAYLOAD","OBJECT_NAME":"STARLINK-2643","MEAN_MOTION_DOT":"-0.00000983","CLASSIFICATION_TYPE":"U","RCS_SIZE":"LARGE","ELEMENT_SET_NO":"999","MEAN_MOTION":"15.06390122","OBJECT_ID":"2021-038Q","EPHEMERIS_TYPE":"0","ARG_OF_PERICENTER":"59.7094","REF_FRAME":"TEME"},{"TLE_LINE1":"1 48368U 21038R   22084.48912810 -.00000958  00000-0 -45432-4 0  9998","MEAN_ANOMALY":"305.7636","TIME_SYSTEM":"UTC","TLE_LINE2":"2 48368  53.0564 359.3670 0001704  54.3512 305.7636 15.06394196 49343","PERIOD":"95.593","ECCENTRICITY":"0.00017040","DECAY_DATE":null,"FILE":"3373822","COUNTRY_CODE":"US","LAUNCH_DATE":"2021-05-04","EPOCH":"2022-03-25T11:44:20.667840","GP_ID":"199662212","CENTER_NAME":"EARTH","APOAPSIS":"548.411","SITE":"AFETR","MEAN_MOTION_DDOT":"0.0000000000000","MEAN_ELEMENT_THEORY":"SGP4","SEMIMAJOR_AXIS":"6925.366","RA_OF_ASC_NODE":"359.3670","REF_FRAME":"TEME","ARG_OF_PERICENTER":"54.3512","OBJECT_ID":"2021-038R","EPHEMERIS_TYPE":"0","MEAN_MOTION":"15.06394196","ELEMENT_SET_NO":"999","RCS_SIZE":"LARGE","MEAN_MOTION_DOT":"-0.00000958","CLASSIFICATION_TYPE":"U","OBJECT_NAME":"STARLINK-2623","OBJECT_TYPE":"PAYLOAD","INCLINATION":"53.0564","NORAD_CAT_ID":"48368","REV_AT_EPOCH":"4934","PERIAPSIS":"546.051","BSTAR":"-0.00004543200000"},{"MEAN_MOTION_DDOT":"0.0000000000000","SITE":"AFETR","APOAPSIS":"548.394","RA_OF_ASC_NODE":"359.4655","MEAN_ELEMENT_THEORY":"SGP4","SEMIMAJOR_AXIS":"6925.362","DECAY_DATE":null,"ECCENTRICITY":"0.00016850","PERIOD":"95.592","TLE_LINE2":"2 48369  53.0580 359.4655 0001685  54.3957 305.7188 15.06395501 49339","MEAN_ANOMALY":"305.7188","TIME_SYSTEM":"UTC","TLE_LINE1":"1 48369U 21038S   22084.46796293 -.00000315  00000-0 -22256-5 0  9999","CENTER_NAME":"EARTH","GP_ID":"199662462","LAUNCH_DATE":"2021-05-04","COUNTRY_CODE":"US","EPOCH":"2022-03-25T11:13:51.997152","FILE":"3373822","OBJECT_TYPE":"PAYLOAD","CLASSIFICATION_TYPE":"U","MEAN_MOTION_DOT":"-0.00000315","OBJECT_NAME":"STARLINK-2641","BSTAR":"-0.00000222560000","PERIAPSIS":"546.060","REV_AT_EPOCH":"4933","NORAD_CAT_ID":"48369","INCLINATION":"53.0580","MEAN_MOTION":"15.06395501","EPHEMERIS_TYPE":"0","OBJECT_ID":"2021-038S","REF_FRAME":"TEME","ARG_OF_PERICENTER":"54.3957","RCS_SIZE":"LARGE","ELEMENT_SET_NO":"999"},{"MEAN_MOTION_DDOT":"0.0000000000000","APOAPSIS":"548.272","SITE":"AFETR","RA_OF_ASC_NODE":"358.2947","SEMIMAJOR_AXIS":"6925.331","MEAN_ELEMENT_THEORY":"SGP4","PERIOD":"95.592","TLE_LINE2":"2 48370  53.0571 358.2947 0001553  41.6267 318.4840 15.06405604 49960","DECAY_DATE":null,"ECCENTRICITY":"0.00015530","TLE_LINE1":"1 48370U 21038T   22084.72966044  .00000001  00000-0  18965-4 0  9994","MEAN_ANOMALY":"318.4840","TIME_SYSTEM":"UTC","GP_ID":"199671019","LAUNCH_DATE":"2021-05-04","COUNTRY_CODE":"US","EPOCH":"2022-03-25T17:30:42.662016","CENTER_NAME":"EARTH","FILE":"3374052","OBJECT_TYPE":"PAYLOAD","CLASSIFICATION_TYPE":"U","MEAN_MOTION_DOT":"0.00000001","OBJECT_NAME":"STARLINK-2621","BSTAR":"0.00001896500000","INCLINATION":"53.0571","PERIAPSIS":"546.121","REV_AT_EPOCH":"4996","NORAD_CAT_ID":"48370","MEAN_MOTION":"15.06405604","ARG_OF_PERICENTER":"41.6267","REF_FRAME":"TEME","OBJECT_ID":"2021-038T","EPHEMERIS_TYPE":"0","RCS_SIZE":"LARGE","ELEMENT_SET_NO":"999"},{"MEAN_MOTION_DDOT":"0.0000000000000","SITE":"AFETR","APOAPSIS":"548.508","RA_OF_ASC_NODE":"359.5166","MEAN_ELEMENT_THEORY":"SGP4","SEMIMAJOR_AXIS":"6925.347","PERIOD":"95.592","TLE_LINE2":"2 48371  53.0555 359.5166 0001871  62.6072 297.5108 15.06400488 49330","ECCENTRICITY":"0.00018710","DECAY_DATE":null,"TLE_LINE1":"1 48371U 21038U   22084.46058968  .00002313  00000-0  17411-3 0  9995","MEAN_ANOMALY":"297.5108","TIME_SYSTEM":"UTC","GP_ID":"199662963","COUNTRY_CODE":"US","LAUNCH_DATE":"2021-05-04","EPOCH":"2022-03-25T11:03:14.948352","CENTER_NAME":"EARTH","FILE":"3373822","OBJECT_TYPE":"PAYLOAD","MEAN_MOTION_DOT":"0.00002313","CLASSIFICATION_TYPE":"U","OBJECT_NAME":"STARLINK-2589","BSTAR":"0.00017411000000","INCLINATION":"53.0555","PERIAPSIS":"545.916","REV_AT_EPOCH":"4933","NORAD_CAT_ID":"48371","MEAN_MOTION":"15.06400488","ARG_OF_PERICENTER":"62.6072","REF_FRAME":"TEME","OBJECT_ID":"2021-038U","EPHEMERIS_TYPE":"0","RCS_SIZE":"LARGE","ELEMENT_SET_NO":"999"},{"TIME_SYSTEM":"UTC","MEAN_ANOMALY":"310.7282","TLE_LINE1":"1 48372U 21038V   22084.45690139 -.00000902  00000-0 -41685-4 0  9992","ECCENTRICITY":"0.00020000","DECAY_DATE":null,"TLE_LINE2":"2 48372  53.0552 359.5329 0002000  49.3881 310.7282 15.06393017 49929","PERIOD":"95.593","FILE":"3374038","CENTER_NAME":"EARTH","LAUNCH_DATE":"2021-05-04","EPOCH":"2022-03-25T10:57:56.280096","COUNTRY_CODE":"US","GP_ID":"199670430","APOAPSIS":"548.620","SITE":"AFETR","MEAN_MOTION_DDOT":"0.0000000000000","SEMIMAJOR_AXIS":"6925.370","MEAN_ELEMENT_THEORY":"SGP4","RA_OF_ASC_NODE":"359.5329","OBJECT_ID":"2021-038V","EPHEMERIS_TYPE":"0","ARG_OF_PERICENTER":"49.3881","REF_FRAME":"TEME","MEAN_MOTION":"15.06393017","ELEMENT_SET_NO":"999","RCS_SIZE":"LARGE","CLASSIFICATION_TYPE":"U","MEAN_MOTION_DOT":"-0.00000902","OBJECT_NAME":"STARLINK-2572","OBJECT_TYPE":"PAYLOAD","NORAD_CAT_ID":"48372","PERIAPSIS":"545.850","REV_AT_EPOCH":"4992","INCLINATION":"53.0552","BSTAR":"-0.00004168500000"},{"RCS_SIZE":"LARGE","ELEMENT_SET_NO":"999","MEAN_MOTION":"15.06412728","ARG_OF_PERICENTER":"66.6190","REF_FRAME":"TEME","OBJECT_ID":"2021-038W","EPHEMERIS_TYPE":"0","BSTAR":"0.00012095000000","INCLINATION":"53.0544","NORAD_CAT_ID":"48373","REV_AT_EPOCH":"4933","PERIAPSIS":"546.127","OBJECT_TYPE":"PAYLOAD","CLASSIFICATION_TYPE":"U","MEAN_MOTION_DOT":"0.00001521","OBJECT_NAME":"STARLINK-2609","COUNTRY_CODE":"US","LAUNCH_DATE":"2021-05-04","EPOCH":"2022-03-25T10:52:37.709472","GP_ID":"199661962","CENTER_NAME":"EARTH","FILE":"3373822","TLE_LINE2":"2 48373  53.0544 359.5519 0001513  66.6190 293.4958 15.06412728 49338","PERIOD":"95.591","DECAY_DATE":null,"ECCENTRICITY":"0.00015130","TLE_LINE1":"1 48373U 21038W   22084.45321423  .00001521  00000-0  12095-3 0  9998","MEAN_ANOMALY":"293.4958","TIME_SYSTEM":"UTC","RA_OF_ASC_NODE":"359.5519","SEMIMAJOR_AXIS":"6925.310","MEAN_ELEMENT_THEORY":"SGP4","MEAN_MOTION_DDOT":"0.0000000000000","SITE":"AFETR","APOAPSIS":"548.222"},{"RCS_SIZE":"LARGE","ELEMENT_SET_NO":"999","MEAN_MOTION":"15.06394065","EPHEMERIS_TYPE":"0","OBJECT_ID":"2021-038X","ARG_OF_PERICENTER":"58.6312","REF_FRAME":"TEME","BSTAR":"0.00010994000000","PERIAPSIS":"546.067","REV_AT_EPOCH":"4929","NORAD_CAT_ID":"48374","INCLINATION":"53.0549","OBJECT_TYPE":"PAYLOAD","OBJECT_NAME":"STARLINK-2604","MEAN_MOTION_DOT":"0.00001356","CLASSIFICATION_TYPE":"U","CENTER_NAME":"EARTH","GP_ID":"199662713","COUNTRY_CODE":"US","LAUNCH_DATE":"2021-05-04","EPOCH":"2022-03-25T04:25:10.145280","FILE":"3373822","DECAY_DATE":null,"ECCENTRICITY":"0.00016820","PERIOD":"95.593","TLE_LINE2":"2 48374  53.0549   0.7531 0001682  58.6312 301.4841 15.06394065 49296","MEAN_ANOMALY":"301.4841","TIME_SYSTEM":"UTC","TLE_LINE1":"1 48374U 21038X   22084.18414520  .00001356  00000-0  10994-3 0  9992","RA_OF_ASC_NODE":"0.7531","MEAN_ELEMENT_THEORY":"SGP4","SEMIMAJOR_AXIS":"6925.367","MEAN_MOTION_DDOT":"0.0000000000000","SITE":"AFETR","APOAPSIS":"548.397"},{"TLE_LINE1":"1 48375U 21038Y   22084.77758339 -.00000426  00000-0 -96917-5 0  9997","MEAN_ANOMALY":"306.9257","TIME_SYSTEM":"UTC","PERIOD":"95.593","TLE_LINE2":"2 48375  53.0551 358.0869 0001635  53.1881 306.9257 15.06392181 49975","ECCENTRICITY":"0.00016350","DECAY_DATE":null,"FILE":"3374055","GP_ID":"199670563","LAUNCH_DATE":"2021-05-04","COUNTRY_CODE":"US","EPOCH":"2022-03-25T18:39:43.204896","CENTER_NAME":"EARTH","SITE":"AFETR","APOAPSIS":"548.370","MEAN_MOTION_DDOT":"0.0000000000000","SEMIMAJOR_AXIS":"6925.373","MEAN_ELEMENT_THEORY":"SGP4","RA_OF_ASC_NODE":"358.0869","ARG_OF_PERICENTER":"53.1881","REF_FRAME":"TEME","OBJECT_ID":"2021-038Y","EPHEMERIS_TYPE":"0","MEAN_MOTION":"15.06392181","ELEMENT_SET_NO":"999","RCS_SIZE":"LARGE","MEAN_MOTION_DOT":"-0.00000426","OBJECT_NAME":"STARLINK-2603","CLASSIFICATION_TYPE":"U","OBJECT_TYPE":"PAYLOAD","INCLINATION":"53.0551","PERIAPSIS":"546.105","REV_AT_EPOCH":"4997","NORAD_CAT_ID":"48375","BSTAR":"-0.00000969170000"},{"ELEMENT_SET_NO":"999","RCS_SIZE":"LARGE","EPHEMERIS_TYPE":"0","OBJECT_ID":"2021-038Z","ARG_OF_PERICENTER":"69.8346","REF_FRAME":"TEME","MEAN_MOTION":"15.06383926","NORAD_CAT_ID":"48376","REV_AT_EPOCH":"4929","PERIAPSIS":"546.018","INCLINATION":"53.0560","BSTAR":"0.00038020000000","MEAN_MOTION_DOT":"0.00005384","OBJECT_NAME":"STARLINK-2610","CLASSIFICATION_TYPE":"U","OBJECT_TYPE":"PAYLOAD","FILE":"3373822","CENTER_NAME":"EARTH","EPOCH":"2022-03-25T04:14:32.862336","LAUNCH_DATE":"2021-05-04","COUNTRY_CODE":"US","GP_ID":"199662213","MEAN_ANOMALY":"290.2836","TIME_SYSTEM":"UTC","TLE_LINE1":"1 48376U 21038Z   22084.17676924  .00005384  00000-0  38020-3 0  9996","ECCENTRICITY":"0.00017970","DECAY_DATE":null,"TLE_LINE2":"2 48376  53.0560   0.7946 0001797  69.8346 290.2836 15.06383926 49292","PERIOD":"95.593","MEAN_ELEMENT_THEORY":"SGP4","SEMIMAJOR_AXIS":"6925.398","RA_OF_ASC_NODE":"0.7946","APOAPSIS":"548.507","SITE":"AFETR","MEAN_MOTION_DDOT":"0.0000000000000"}];
